NORAD_CAT_ID,OBJECT_NAME,OBJECT_TYPE,EPOCH,MEAN_MOTION,ECCENTRICITY,INCLINATION,RA_OF_ASC_NODE,ARG_OF_PERICENTER,MEAN_ANOMALY,BSTAR,MEAN_MOTION_DOT,MEAN_MOTION_DDOT,TLE_LINE0,TLE_LINE1,TLE_LINE2,SEMIMAJOR_AXIS,PERIOD,APOGEE,PERIGEE,DECAYED
51137.0,STARLINK-3180,PAYLOAD,2024-01-28 08:25:18,15.0883053,0.0001449,53.2175,161.7936,90.9905,269.1253,-0.00014769,-2.637e-05,0.0,0 STARLINK-3180,1 51137U 22005AK  24028.35090982 -.00002637  00000-0 -14769-3 0  9998,2 51137  53.2175 161.7936 0001449  90.9905 269.1253 15.08830530113405,6917.909,95.438,540.777,538.772,0.0
51137.0,STARLINK-3180,PAYLOAD,2024-01-28 14:46:51,15.08828597,0.000163,53.2176,160.6002,118.4838,241.6318,-0.00016157,-2.858e-05,0.0,0 STARLINK-3180,1 51137U 22005AK  24028.61587154 -.00002858  00000-0 -16157-3 0  9997,2 51137  53.2176 160.6002 0001630 118.4838 241.6318 15.08828597112339,6917.915,95.438,540.908,538.653,0.0
51137.0,STARLINK-3180,PAYLOAD,2024-01-28 16:22:14,15.0882669,0.0001572,53.2179,160.3065,68.9651,291.1509,-0.00014049,-2.522e-05,0.0,0 STARLINK-3180,1 51137U 22005AK  24028.68211613 -.00002522  00000-0 -14049-3 0  9994,2 51137  53.2179 160.3065 0001572  68.9651 291.1509 15.08826690112340,6917.921,95.438,540.874,538.699,0.0
51137.0,STARLINK-3180,PAYLOAD,2024-01-29 08:16:05,15.0883756,0.0001535,53.2167,157.3353,67.1853,292.9301,0.00011209,1.496e-05,0.0,0 STARLINK-3180,1 51137U 22005AK  24029.34450540  .00001496  00000-0  11209-3 0  9994,2 51137  53.2167 157.3353 0001535  67.1853 292.9301 15.08837560113558,6917.888,95.438,540.815,538.691,0.0
51137.0,STARLINK-3180,PAYLOAD,2024-01-29 17:48:23,15.08853763,0.000173,53.2161,155.5605,60.9817,299.1348,0.00014161,1.967e-05,0.0,0 STARLINK-3180,1 51137U 22005AK  24029.74193312  .00001967  00000-0  14161-3 0  9992,2 51137  53.2161 155.5605 0001730  60.9817 299.1348 15.08853763113610,6917.838,95.437,540.9,538.507,0.0
51137.0,STARLINK-3180,PAYLOAD,2024-01-30 11:17:38,15.08840268,0.0001611,53.2175,152.278,93.6314,266.4862,0.00025843,3.827e-05,0.0,0 STARLINK-3180,1 51137U 22005AK  24030.47057923  .00003827  00000-0  25843-3 0  9997,2 51137  53.2175 152.2780 0001611  93.6314 266.4862 15.08840268113722,6917.88,95.438,540.859,538.63,0.0
51137.0,STARLINK-3180,PAYLOAD,2024-01-30 14:28:24,15.08832227,0.0001646,53.2179,151.6876,87.8772,272.2409,0.0002764,4.113e-05,0.0,0 STARLINK-3180,1 51137U 22005AK  24030.60306265  .00004113  00000-0  27640-3 0  9994,2 51137  53.2179 151.6876 0001646  87.8772 272.2409 15.08832227112633,6917.904,95.438,540.908,538.63,0.0
51137.0,STARLINK-3180,PAYLOAD,2024-01-31 11:08:26,15.08772809,0.0002499,53.2176,147.821,93.858,266.2697,0.001027,0.00016065,0.0,0 STARLINK-3180,1 51137U 22005AK  24031.46419347  .00016065  00000-0  10270-2 0  9994,2 51137  53.2176 147.8210 0002499  93.8580 266.2697 15.08772809113878,6918.086,95.442,541.68,538.222,0.0
51137.0,STARLINK-3180,PAYLOAD,2024-01-31 17:29:56,15.08882886,0.0001636,53.2167,146.6299,94.4221,265.6958,-0.00046477,-7.686e-05,0.0,0 STARLINK-3180,1 51137U 22005AK  24031.72912350 -.00007686  00000-0 -46477-3 0  9995,2 51137  53.2167 146.6299 0001636  94.4221 265.6958 15.08882886113918,6917.749,95.435,540.746,538.483,0.0
51137.0,STARLINK-3180,PAYLOAD,2024-02-01 10:59:12,15.08808545,0.00018,53.2175,143.3536,103.6748,256.4445,0.00037346,5.656e-05,0.0,0 STARLINK-3180,1 51137U 22005AK  24032.45778554  .00005656  00000-0  37346-3 0  9990,2 51137  53.2175 143.3536 0001800 103.6748 256.4445 15.08808545114027,6917.977,95.44,541.087,538.596,0.0
51137.0,STARLINK-3180,PAYLOAD,2024-02-01 14:09:58,15.08839778,0.0001449,53.2168,142.7614,92.1403,267.9756,-3.7701e-05,-8.88e-06,0.0,0 STARLINK-3180,1 51137U 22005AK  24032.59025963 -.00000888  00000-0 -37701-4 0  9994,2 51137  53.2168 142.7614 0001449  92.1403 267.9756 15.08839778112930,6917.881,95.438,540.748,538.744,0.0
51137.0,STARLINK-3180,PAYLOAD,2024-02-02 12:25:21,15.08839445,0.0001385,53.2163,138.5942,93.7949,266.3201,7.876e-05,9.66e-06,0.0,0 STARLINK-3180,1 51137U 22005AK  24033.51761544  .00000966  00000-0  78760-4 0  9994,2 51137  53.2163 138.5942 0001385  93.7949 266.3201 15.08839445113078,6917.882,95.438,540.705,538.789,0.0
51137.0,STARLINK-3180,PAYLOAD,2024-02-03 12:16:09,15.08836237,0.0001449,53.2174,134.1395,84.3597,275.756,4.0089e-05,3.5e-06,0.0,0 STARLINK-3180,1 51137U 22005AK  24034.51122183  .00000350  00000-0  40089-4 0  9995,2 51137  53.2174 134.1395 0001449  84.3597 275.7560 15.08836237114338,6917.892,95.438,540.759,538.754,0.0
51137.0,STARLINK-3180,PAYLOAD,2024-02-03 13:51:32,15.08837697,0.0001456,53.2175,133.842,81.9847,278.1311,4.9941e-05,5.07e-06,0.0,0 STARLINK-3180,1 51137U 22005AK  24034.57746085  .00000507  00000-0  49941-4 0  9994,2 51137  53.2175 133.8420 0001456  81.9847 278.1311 15.08837697113233,6917.887,95.438,540.76,538.745,0.0
51137.0,STARLINK-3180,PAYLOAD,2024-02-03 17:02:18,15.08838217,0.0001459,53.2175,133.2471,82.2816,277.8342,5.2216e-05,5.43e-06,0.0,0 STARLINK-3180,1 51137U 22005AK  24034.70994058  .00000543  00000-0  52216-4 0  9993,2 51137  53.2175 133.2471 0001459  82.2816 277.8342 15.08838217113257,6917.886,95.438,540.76,538.742,0.0
51137.0,STARLINK-3180,PAYLOAD,2024-02-04 13:42:19,15.08843532,0.000162,53.2176,129.3854,77.6471,282.4703,7.413e-06,-1.7e-06,0.0,0 STARLINK-3180,1 51137U 22005AK  24035.57106089 -.00000170  00000-0  74130-5 0  9995,2 51137  53.2176 129.3854 0001620  77.6471 282.4703 15.08843532113387,6917.87,95.437,540.855,538.614,0.0
51137.0,STARLINK-3180,PAYLOAD,2024-02-05 13:33:06,15.08846552,0.0001373,53.2173,124.9211,88.414,271.701,0.00010332,1.357e-05,0.0,0 STARLINK-3180,1 51137U 22005AK  24036.56465495  .00001357  00000-0  10332-3 0  9993,2 51137  53.2173 124.9211 0001373  88.4140 271.7010 15.08846552113534,6917.86,95.437,540.675,538.776,0.0
51137.0,STARLINK-3180,PAYLOAD,2024-02-06 11:48:30,15.08841439,0.0001435,53.2164,120.7616,80.0756,280.0398,6.0397e-05,6.73e-06,0.0,0 STARLINK-3180,1 51137U 22005AK  24037.49201992  .00000673  00000-0  60397-4 0  9993,2 51137  53.2164 120.7616 0001435  80.0756 280.0398 15.08841439114786,6917.876,95.437,540.734,538.748,0.0
51137.0,STARLINK-3180,PAYLOAD,2024-02-07 11:39:16,15.08851107,0.0001362,53.216,116.2972,88.7935,271.3213,1.702e-05,-1.7e-07,0.0,0 STARLINK-3180,1 51137U 22005AK  24038.48561297 -.00000017  00000-0  17020-4 0  9998,2 51137  53.2160 116.2972 0001362  88.7935 271.3213 15.08851107113826,6917.846,95.437,540.654,538.769,0.0
51137.0,STARLINK-3180,PAYLOAD,2024-02-08 11:30:04,15.08842761,0.0001483,53.2161,111.8357,83.4013,276.7148,-1.8123e-05,-5.76e-06,0.0,0 STARLINK-3180,1 51137U 22005AK  24039.47921934 -.00000576  00000-0 -18123-4 0  9992,2 51137  53.2161 111.8357 0001483  83.4013 276.7148 15.08842761115080,6917.872,95.437,540.763,538.711,0.0
51137.0,STARLINK-3180,PAYLOAD,2024-02-09 09:45:28,15.08837925,0.0001499,53.2168,107.6748,98.4761,261.6402,-2.958e-05,-7.59e-06,0.0,0 STARLINK-3180,1 51137U 22005AK  24040.40658553 -.00000759  00000-0 -29580-4 0  9993,2 51137  53.2168 107.6748 0001499  98.4761 261.6402 15.08837925115225,6917.887,95.438,540.789,538.715,0.0
51137.0,STARLINK-3180,PAYLOAD,2024-02-10 09:36:15,15.08838959,0.0001675,53.2174,103.2145,109.6128,250.5045,9.0701e-05,1.156e-05,0.0,0 STARLINK-3180,1 51137U 22005AK  24041.40018487  .00001156  00000-0  90701-4 0  9993,2 51137  53.2174 103.2145 0001675 109.6128 250.5045 15.08838959114264,6917.884,95.438,540.907,538.59,0.0
51137.0,STARLINK-3180,PAYLOAD,2024-02-11 11:02:26,15.08842618,0.000148,53.2167,98.4572,84.4869,275.6292,0.00011085,1.477e-05,0.0,0 STARLINK-3180,1 51137U 22005AK  24042.46002638  .00001477  00000-0  11085-3 0  9994,2 51137  53.2167  98.4572 0001480  84.4869 275.6292 15.08842618115531,6917.872,95.437,540.761,538.714,0.0
51137.0,STARLINK-3180,PAYLOAD,2024-02-11 12:37:49,15.08846407,0.0001686,53.2178,98.1585,106.3543,253.7634,0.00013927,1.93e-05,0.0,0 STARLINK-3180,1 51137U 22005AK  24042.52626182  .00001930  00000-0  13927-3 0  9998,2 51137  53.2178  98.1585 0001686 106.3543 253.7634 15.08846407114430,6917.861,95.437,540.892,538.559,0.0
51137.0,STARLINK-3180,PAYLOAD,2024-02-12 10:53:12,15.0885107,0.0001695,53.2175,93.9969,84.7461,275.3725,0.00013445,1.853e-05,0.0,0 STARLINK-3180,1 51137U 22005AK  24043.45361837  .00001853  00000-0  13445-3 0  9993,2 51137  53.2175  93.9969 0001695  84.7461 275.3725 15.08851070114572,6917.847,95.437,540.884,538.539,0.0
51137.0,STARLINK-3180,PAYLOAD,2024-02-13 02:47:05,15.08837956,0.0001616,53.2183,91.024,103.0424,257.0748,-7.0568e-05,-1.411e-05,0.0,0 STARLINK-3180,1 51137U 22005AK  24044.11603242 -.00001411  00000-0 -70568-4 0  9998,2 51137  53.2183  91.0240 0001616 103.0424 257.0748 15.08837956115782,6917.887,95.438,540.87,538.634,0.0
51137.0,STARLINK-3180,PAYLOAD,2024-02-13 10:44:00,15.0883762,0.0001547,53.2181,89.5361,105.9698,254.1465,-6.4503e-05,-1.314e-05,0.0,0 STARLINK-3180,1 51137U 22005AK  24044.44723324 -.00001314  00000-0 -64503-4 0  9992,2 51137  53.2181  89.5361 0001547 105.9698 254.1465 15.08837620114728,6917.888,95.438,540.823,538.682,0.0
51137.0,STARLINK-3180,PAYLOAD,2024-02-13 20:16:19,15.08840114,0.0001443,53.217,87.7499,103.2269,256.8884,-6.9165e-05,-1.389e-05,0.0,0 STARLINK-3180,1 51137U 22005AK  24044.84467196 -.00001389  00000-0 -69165-4 0  9999,2 51137  53.2170  87.7499 0001443 103.2269 256.8884 15.08840114114780,6917.88,95.438,540.743,538.747,0.0
51137.0,STARLINK-3180,PAYLOAD,2024-02-14 08:59:24,15.08848629,0.0001373,53.2166,85.3708,101.4077,258.707,3.0414e-05,1.96e-06,0.0,0 STARLINK-3180,1 51137U 22005AK  24045.37458364  .00000196  00000-0  30414-4 0  9993,2 51137  53.2166  85.3708 0001373 101.4077 258.7070 15.08848629115970,6917.854,95.437,540.669,538.769,0.0
51137.0,STARLINK-3180,PAYLOAD,2024-02-14 12:10:09,15.08854272,0.0001626,53.2175,84.7751,94.4192,265.6986,3.3238e-05,2.41e-06,0.0,0 STARLINK-3180,1 51137U 22005AK  24045.50705959  .00000241  00000-0  33238-4 0  9991,2 51137  53.2175  84.7751 0001626  94.4192 265.6986 15.08854272114884,6917.837,95.437,540.827,538.577,0.0
